[{"OBJECT_NAME":"TRANSPORTER-12 OBJECT AZ","OBJECT_ID":"2025-009AZ","EPOCH":"2026-03-09T17:02:46.667040","MEAN_MOTION":15.30349724,"ECCENTRICITY":9.87e-5,"INCLINATION":97.3981,"RA_OF_ASC_NODE":151.9913,"ARG_OF_PERICENTER":45.3581,"MEAN_ANOMALY":314.774,"EPHEMERIS_TYPE":0,"CLASSIFICATION_TYPE":"U","NORAD_CAT_ID":62656,"ELEMENT_SET_NO":999,"REV_AT_EPOCH":6379,"BSTAR":0.00054902545,"MEAN_MOTION_DOT":0.00016057,"MEAN_MOTION_DDOT":0},{"OBJECT_NAME":"STARLINK-34278","OBJECT_ID":"2025-127X","EPOCH":"2026-03-09T09:11:54.897792","MEAN_MOTION":15.27574143,"ECCENTRICITY":0.00011766,"INCLINATION":42.9994,"RA_OF_ASC_NODE":181.2082,"ARG_OF_PERICENTER":232.4641,"MEAN_ANOMALY":127.6104,"EPHEMERIS_TYPE":0,"CLASSIFICATION_TYPE":"U","NORAD_CAT_ID":64391,"ELEMENT_SET_NO":999,"REV_AT_EPOCH":4242,"BSTAR":0.0010566033,"MEAN_MOTION_DOT":0.00028922,"MEAN_MOTION_DDOT":0}]
